[{"OBJECT_NAME":"STARLINK-4152","OBJECT_ID":"2022-083E","EPOCH":"2026-03-09T14:41:26.153664","MEAN_MOTION":15.0883754,"ECCENTRICITY":0.0001398,"INCLINATION":53.2186,"RA_OF_ASC_NODE":174.4695,"ARG_OF_PERICENTER":92.2733,"MEAN_ANOMALY":267.8419,"EPHEMERIS_TYPE":0,"CLASSIFICATION_TYPE":"U","NORAD_CAT_ID":53136,"ELEMENT_SET_NO":999,"REV_AT_EPOCH":20219,"BSTAR":9.4972e-6,"MEAN_MOTION_DOT":-1.37e-6,"MEAN_MOTION_DDOT":0},{"OBJECT_NAME":"COSMOS 2251 DEB","OBJECT_ID":"1993-036KZ","EPOCH":"2026-03-09T13:28:08.575968","MEAN_MOTION":15.07827872,"ECCENTRICITY":0.00279097,"INCLINATION":73.9949,"RA_OF_ASC_NODE":118.7357,"ARG_OF_PERICENTER":226.7607,"MEAN_ANOMALY":259.798,"EPHEMERIS_TYPE":0,"CLASSIFICATION_TYPE":"U","NORAD_CAT_ID":34128,"ELEMENT_SET_NO":999,"REV_AT_EPOCH":90472,"BSTAR":0.0021198383,"MEAN_MOTION_DOT":0.0003287,"MEAN_MOTION_DDOT":0}]
